GSAT0101 (PRN E11)      
1 37846U 11060A   23277.21257625 -.00000111  00000+0  00000+0 0  9999
2 37846  57.1122   8.4914 0000578  60.4320 299.6026  1.70475916 74295
GSAT0102 (PRN E12)      
1 37847U 11060B   23277.76000083 -.00000111  00000+0  00000+0 0  9994
2 37847  57.1130   8.4766 0001722 306.1584  76.0509  1.70475330 74310
GSAT0103 (PRN E19)      
1 38857U 12055A   23277.25176016  .00000014  00000+0  00000+0 0  9996
2 38857  55.2938 128.6697 0002181 251.5092 108.5516  1.70473729 68325
GSAT0104 (PRN E20)      
1 38858U 12055B   23277.80775423  .00000015  00000+0  00000+0 0  9996
2 38858  55.2939 128.6559 0000935 142.9915 217.0979  1.70473989 68198
GSAT0201 (PRN E18)      
1 40128U 14050A   23278.06566564 -.00000073  00000+0  00000+0 0  9994
2 40128  49.9078 313.3369 1607884 141.5421 231.1042  1.85519413 60022
GSAT0202 (PRN E14)      
1 40129U 14050B   23277.24695330 -.00000075  00000+0  00000+0 0  9990
2 40129  49.9275 312.4417 1605797 142.3216 230.1030  1.85520064 62176
GSAT0203 (PRN E26)      
1 40544U 15017A   23272.29929207 -.00000102  00000+0  00000+0 0  9999
2 40544  56.9059   8.5936 0003937 234.5687 125.4158  1.70476049 52956
GSAT0204 (PRN E22)      
1 40545U 15017B   23277.24568794 -.00000111  00000+0  00000+0 0  9990
2 40545  56.9135   8.4737 0004250 221.0043 138.9926  1.70475700 15422
GSAT0205 (PRN E24)      
1 40889U 15045A   23278.18681648  .00000009  00000+0  00000+0 0  9995
2 40889  55.3485 248.8439 0004039   4.1141 355.8614  1.70473137 50208
GSAT0206 (PRN E30)      
1 40890U 15045B   23276.64772219  .00000009  00000+0  00000+0 0  9991
2 40890  55.3484 248.8819 0002621 336.6508  23.3033  1.70473149 50201
GSAT0209 (PRN E09)      
1 41174U 15079A   23277.40597112  .00000015  00000+0  00000+0 0  9993
2 41174  55.3119 128.3727 0002271 342.3418  17.7341  1.70474172 48536
GSAT0208 (PRN E08)      
1 41175U 15079B   23277.03901922  .00000015  00000+0  00000+0 0  9991
2 41175  55.3101 128.3808 0001827 353.1930   6.8897  1.70474087 48364
GSAT0211 (PRN E02)      
1 41549U 16030A   23277.15999922  .00000009  00000+0  00000+0 0  9997
2 41549  55.4954 248.8513 0004014 318.1246  41.8129  1.70473239 45844
GSAT0210 (PRN E01)      
1 41550U 16030B   23278.03807989  .00000009  00000+0  00000+0 0  9998
2 41550  55.4943 248.8283 0003906 283.2677  76.6604  1.70473493 45854
GSAT0207 (PRN E07)      
1 41859U 16069A   23277.69979114  .00000014  00000+0  00000+0 0  9999
2 41859  54.9751 128.4288 0002080 314.2677  45.7982  1.70474180 42589
GSAT0212 (PRN E03)      
1 41860U 16069B   23276.96783936  .00000014  00000+0  00000+0 0  9995
2 41860  54.9723 128.4461 0001957  19.1169 340.9759  1.70474298 42821
GSAT0213 (PRN E04)      
1 41861U 16069C   23277.92071572  .00000014  00000+0  00000+0 0  9999
2 41861  54.9750 128.4257 0001978 268.6838  91.3761  1.70473009 42708
GSAT0214 (PRN E05)      
1 41862U 16069D   23278.06798333  .00000015  00000+0  00000+0 0  9998
2 41862  54.9730 128.4155 0001008 272.4261  87.6447  1.70472886 42836
GSAT0215 (PRN E21)      
1 43055U 17079A   23276.79666467  .00000009  00000+0  00000+0 0  9999
2 43055  55.4721 248.6867 0003417 277.0840  82.8438  1.70473895 36159
GSAT0216 (PRN E25)      
1 43056U 17079B   23278.26173872  .00000009  00000+0  00000+0 0  9997
2 43056  55.4718 248.6463 0004971 281.4744  78.4421  1.70474054 36191
GSAT0217 (PRN E27)      
1 43057U 17079C   23276.72234319  .00000009  00000+0  00000+0 0  9991
2 43057  55.4705 248.6877 0004466 292.9432  66.9760  1.70473990 36159
GSAT0218 (PRN E31)      
1 43058U 17079D   23278.11557241  .00000009  00000+0  00000+0 0  9999
2 43058  55.4699 248.6469 0005404 277.8551  82.0553  1.70473981 36201
GSAT0221 (PRN E15)      
1 43564U 18060A   23273.32270937 -.00000104  00000+0  00000+0 0  9991
2 43564  57.2877   8.5008 0003568 254.1728 105.8116  1.70476119 32274
GSAT0222 (PRN E33)      
1 43565U 18060B   23277.64693084 -.00000111  00000+0  00000+0 0  9991
2 43565  57.2917   8.3852 0004153 222.8064 137.1905  1.70475954 32394
GSAT0219 (PRN E36)      
1 43566U 18060C   23276.10946754 -.00000110  00000+0  00000+0 0  9996
2 43566  57.2907   8.4289 0003079 258.3568 101.6372  1.70476034 32347
GSAT0220 (PRN E13)      
1 43567U 18060D   23269.87746300 -.00000095  00000+0  00000+0 0  9990
2 43567  57.2899   8.5973 0002790 251.5228 108.4649  1.70475635 32221
GSAT0223 (PRN E34)      
1 49809U 21116A   23277.29379497 -.00000111  00000+0  00000+0 0  9994
2 49809  57.2820   8.2923 0003651 199.0596 122.7870  1.70476230 11351
GSAT0224 (PRN E10)      
1 49810U 21116B   23278.28085889 -.00000111  00000+0  00000+0 0  9995
2 49810  57.2828   8.2640 0002887 188.8831 131.2355  1.70476412 11394
